{"RECORDS":[{"CCSDS_OMM_VERS":68436.62,"CREATION_DATE":"2010-07-02T20:03:57.892Z","ORIGINATOR":"Kertzmann - Marquardt","OBJECT_NAME":";L-wsBKa4(","OBJECT_ID":"uI.]qj[Eb#","CENTER_NAME":"nH<*(L/Pc6","REF_FRAME":4,"REF_FRAME_EPOCH":"2006-05-24T16:06:41.241Z","TIME_SYSTEM":11,"MEAN_ELEMENT_THEORY":0,"COMMENT":"R?/(m}5#wf","EPOCH":"2080-01-20T20:05:58.830Z","SEMI_MAJOR_AXIS":27729.8,"MEAN_MOTION":13397.56,"ECCENTRICITY":44537.6,"INCLINATION":35270.04,"RA_OF_ASC_NODE":62299.21,"ARG_OF_PERICENTER":14085.99,"MEAN_ANOMALY":28607.29,"GM":22865.45,"MASS":47326.22,"SOLAR_RAD_AREA":47667.61,"SOLAR_RAD_COEFF":76014.47,"DRAG_AREA":99079.15,"DRAG_COEFF":9567.01,"EPHEMERIS_TYPE":0,"CLASSIFICATION_TYPE":"-cbkBkg|_K","NORAD_CAT_ID":1279747776,"ELEMENT_SET_NO":1276398216,"REV_AT_EPOCH":5275.31,"BSTAR":24997.69,"MEAN_MOTION_DOT":86438.25,"MEAN_MOTION_DDOT":71840.13,"COV_REF_FRAME":1,"CX_X":1197.42,"CY_X":67502.45,"CY_Y":57856.47,"CZ_X":68700.67,"CZ_Y":44685.3,"CZ_Z":25312.24,"CX_DOT_X":61851.35,"CX_DOT_Y":41585.69,"CX_DOT_Z":68361.85,"CX_DOT_X_DOT":27211.37,"CY_DOT_X":3429.81,"CY_DOT_Y":7464.22,"CY_DOT_Z":1607.47,"CY_DOT_X_DOT":97465.92,"CY_DOT_Y_DOT":58537.68,"CZ_DOT_X":8833.88,"CZ_DOT_Y":79542.06,"CZ_DOT_Z":8292.51,"CZ_DOT_X_DOT":35702.78,"CZ_DOT_Y_DOT":38231.73,"CZ_DOT_Z_DOT":77451.8,"USER_DEFINED_BIP_0044_TYPE":1662290542,"USER_DEFINED_OBJECT_DESIGNATOR":"z#Z;[E!DzU","USER_DEFINED_EARTH_MODEL":"muC1SnR*J7","USER_DEFINED_EPOCH_TIMESTAMP":31911.99,"USER_DEFINED_MICROSECONDS":98218.04}]}